#aV2022 11 10  0  0  0.00000000     288 DD+AD WGS84 FIT  NGA
## 2235 345600.00000000   300.00000000 59893 0.0000000000000
+   32     1  2  3  4  5  6  7  8  9 10 11 12 13 14 15 16 17
+         18 19 20 21 22 23 24 25 26 27 28 29 30 31 32  0  0
+          0  0  0  0  0  0  0  0  0  0  0  0  0  0  0  0  0
+          0  0  0  0  0  0  0  0  0  0  0  0  0  0  0  0  0
+          0  0  0  0  0  0  0  0  0  0  0  0  0  0  0  0  0
++         2  2  2  2  2  2  2  2  2  2  2  2  2  2  2  2  2
++         2  2  2  2  2  2  2  2  2  2  2  2  2  2  2  0  0
++         0  0  0  0  0  0  0  0  0  0  0  0  0  0  0  0  0
++         0  0  0  0  0  0  0  0  0  0  0  0  0  0  0  0  0
++         0  0  0  0  0  0  0  0  0  0  0  0  0  0  0  0  0
%c cc cc ccc ccc cccc cccc cccc cccc ccccc ccccc ccccc ccccc
%c cc cc ccc ccc cccc cccc cccc cccc ccccc ccccc ccccc ccccc
%f  0.0000000  0.000000000  0.00000000000  0.000000000000000
%f  0.0000000  0.000000000  0.00000000000  0.000000000000000
%i    0    0    0    0      0      0      0      0         0
%i    0    0    0    0      0      0      0      0         0
/*      NGA, ST. LOUIS,MO.                                  
/*   EPHEMERIS COMPUTED FROM 2 DAYS OF DATA                 
/*   EPOCHA v8 SMOOTHER                                     
/*   G2139 IERS2010 SATIGS SATAPC                           
*  2022 11 10  6 15  0.00000000
P  1  17978.950337   7689.811184  17825.524327    254.056137                    
V  1  10653.322654  20484.509344 -18920.712806     -0.057135                    
P  2 -18027.541643  -3292.291734 -18523.058962   -638.512421                    
V  2 -13137.315565 -21215.287411  16210.405299      0.016852                    
P  3  16878.998264  -2188.196865  20238.432592   -371.820263                    
V  3 -11773.903610  23156.877826  12351.144989     -0.024441                    
P  4  26597.973801    874.938138    545.559112    -89.031330                    
V  4   -738.911878   2699.004673  31690.767822      0.065876                    
P  5 -11224.838024 -11043.942345 -21546.608408   -103.721421                    
V  5  12542.767060 -23872.061167   5865.032615     -0.014570                    
P  6  -3996.340206 -23062.802726  12543.014527    514.469191                    
V  6   9429.150471  12791.476642  26735.842230      0.095000                    
P  7  12686.812239  -8443.410098 -21318.886135    289.201983                    
V  7  14638.628745  24022.441555  -1269.224439     -0.044880                    
P  8  23443.621925   6745.280595 -10980.679119    -93.067778                    
V  8 -13659.283573   2688.339346 -27252.210394     -0.018591                    
P  9  23175.117711  -8118.392177 -10259.941630   -270.879310                    
V  9  12993.974535   2133.372021  27836.478173      0.055827                    
P 10 -10852.589855  23879.653651   3041.839462    -11.252435                    
V 10  -4038.858077   1994.104975 -31986.871429     -0.016337                    
P 11 -11816.846921 -23790.463627    973.469948    -37.466749                    
V 11   2934.738999   -163.436178  31779.708244     -0.057372                    
P 12 -16893.761036    436.571879  20196.181557   -302.478467                    
V 12  13461.559418 -22566.068527  11694.477058     -0.044858                    
P 13 -17050.777866 -13078.212808 -15905.888738    421.905352                    
V 13  19835.652933    786.416642 -21970.676658      0.068216                    
P 14  13112.283622 -23007.778541    910.420479    -84.965601                    
V 14   3360.193209    679.660994 -31583.718783      0.049420                    
P 15 -24038.763837  -4703.756886 -11061.913419    -13.666016                    
V 15  12771.265623  -4861.652175 -26487.722912      0.031845                    
P 16   6069.326428  16084.595916 -20399.512524   -526.880504                    
V 16 -15211.853100  20358.962755  12141.739529     -0.000576                    
P 17  12316.699701 -13009.046585  20075.481926    676.590599                    
V 17  24394.786778   2000.804046 -13910.796929      0.033108                    
P 18 -11041.350638  10504.938028 -21740.103721    -16.499552                    
V 18 -14051.138588 -23736.281812  -4471.789633     -0.139146                    
P 19    -74.187130 -14837.133477  21805.900038    235.376831                    
V 19  28079.382513   2547.509331   1558.750593      0.050601                    
P 20  -3284.069317 -22036.531207 -14612.552413    471.348677                    
V 20   8408.693043 -16667.438734  22994.481685     -0.030562                    
P 21  20120.613406  14001.116045  11733.525493    156.369629                    
V 21   6636.675601  12106.816366 -26511.702489     -0.007884                    
P 22   3346.881225  15459.846891  21779.689723    361.759437                    
V 22 -26599.840862  -1452.949830   5047.764273      0.070695                    
P 23 -16172.751250  19442.295353  -7890.402841     -1.083166                    
V 23   2463.072328 -10028.503892 -29918.637193      0.001472                    
P 24 -20100.861261 -10251.521743  14000.635462     65.228010                    
V 24  -8559.962468 -16317.967269 -23253.092471     -0.157712                    
P 25 -18268.600962  12065.720019  14543.243127    391.133440                    
V 25   6948.238072 -17971.860342  23443.084046      0.037528                    
P 26   -814.516197  23238.349219 -12620.103867    235.336930                    
V 26  -9745.066642  13145.371821  25348.830711      0.011561                    
P 27  14000.068455  12768.051931 -18992.545717    181.269233                    
V 27 -23472.864832   1438.884248 -16134.049051     -0.082623                    
P 28 -13050.419790 -21003.966536  10525.885983    316.643273                    
V 28  -1250.746280 -12642.620089 -27870.331139     -0.055590                    
P 29 -24607.435658   4608.413419  -9033.458057   -566.128033                    
V 29 -11226.543580  -2659.944969  29279.265514     -0.027805                    
P 30   3980.648030 -19166.595185 -17746.177627   -536.824487                    
V 30  13371.897573  18703.627739 -17367.617315      0.003146                    
P 31   4484.800862  23493.880864  10879.623863   -199.697535                    
V 31  -9618.334098 -10893.735383  27559.051111     -0.012332                    
P 32  -8347.789018  14681.604336  20602.051552   -291.298697                    
V 32 -25897.401524   -393.143002 -10483.308503     -0.124890                    
EOF
